TDRS 3                  
1 19548U 88091B   22235.22311993 -.00000298  00000+0  00000+0 0  9995
2 19548  13.6663 350.7896 0033521 326.9969  45.1696  1.00269266111398
HST                     
1 20580U 90037B   22234.87488203  .00001508  00000+0  77755-4 0  9995
2 20580  28.4700  88.6099 0002658  34.0525 335.0923 15.10783517576278
TDRS 5                  
1 21639U 91054B   22235.07992177  .00000084  00000+0  00000+0 0  9996
2 21639  14.2324   4.1188 0023064   2.3318 185.9956  1.00274802113724
TDRS 6                  
1 22314U 93003B   22235.29203917 -.00000296  00000+0  00000+0 0  9990
2 22314  14.1351   7.3645 0011829 129.1638 254.3823  1.00271407108407
TDRS 7                  
1 23613U 95035B   22234.86299681 -.00000202  00000+0  00000+0 0  9992
2 23613  13.9524 358.0619 0027389  58.3898 310.1991  1.00271700 99171
ISS (ZARYA)             
1 25544U 98067A   22235.50869149  .00006706  00000+0  12409-3 0  9993
2 25544  51.6449   3.0638 0005034 151.5393 297.8763 15.50297674355629
LANDSAT 7               
1 25682U 99020A   22235.53596749  .00000193  00000+0  49550-4 0  9994
2 25682  97.9741 281.0596 0001095  89.3860 270.7469 14.59788590242359
TERRA                   
1 25994U 99068A   22235.50467191  .00000110  00000+0  34378-4 0  9998
2 25994  98.1330 305.8740 0001572  86.5516  27.3705 14.57140456206388
TDRS 8                  
1 26388U 00034A   22234.97688345 -.00000236  00000+0  00000+0 0  9997
2 26388  10.4695  42.0832 0018800 352.3248  17.6957  1.00266649 81195
TIMED                   
1 26998U 01055B   22235.10684270  .00000436  00000+0  50629-4 0  9995
2 26998  74.0730 146.8501 0001455 302.9782  57.1259 14.88758839123060
TDRS 9                  
1 27389U 02011A   22235.48143187 -.00000292  00000+0  00000+0 0  9995
2 27389   9.1584  60.1968 0021706 300.1285  82.4082  1.00267402 76462
AQUA                    
1 27424U 02022A   22235.45073163  .00000218  00000+0  58142-4 0  9992
2 27424  98.2495 176.7172 0001860  64.9634  73.9600 14.57360630 79989
TDRS 10                 
1 27566U 02055A   22235.34579072  .00000084  00000+0  00000+0 0  9999
2 27566   8.3215  49.5822 0006167 354.0898 241.2914  1.00273392 72250
SORCE                   
1 27651U 03004A   22235.35868246  .00000577  00000+0  72386-4 0  9992
2 27651  39.9945 203.8743 0023935 225.2223 134.6620 14.90049762 63079
AURA                    
1 28376U 04026A   22234.83100838  .00000277  00000+0  71444-4 0  9991
2 28376  98.2113 177.2208 0001583  79.9914 280.1463 14.57119732962893
SWIFT                   
1 28485U 04047A   22235.24642164  .00001999  00000+0  10060-3 0  9992
2 28485  20.5554 201.3798 0010745  66.7865 293.3701 15.06743622973713
THEMIS A                
1 30580U 07004A   22235.11566360 -.00000669  00000+0  20527-1 0  9997
2 30580  13.7971 338.7259 8380343 179.0326 186.5757  0.87836290 53718
THEMIS D                
1 30797U 07004D   22234.81716028 -.00000587  00000+0  00000+0 0  9992
2 30797   9.6048 328.0281 8338371 192.7926 103.6479  0.87838495 53233
THEMIS E                
1 30798U 07004E   22235.47604340 -.00000603  00000+0  00000+0 0  9998
2 30798  10.5191 341.5773 8327360 181.3994 301.7369  0.87841963 53654
AIM                     
1 31304U 07015A   22235.09901513  .00003277  00000+0  16235-3 0  9994
2 31304  97.8519 156.8208 0006082 131.9086 228.2667 15.18512933841303
FGRST (GLAST)           
1 33053U 08029A   22234.28762175  .00001324  00000+0  57512-4 0  9997
2 33053  25.5830  78.2033 0011747 222.4037 137.5590 15.12340729783677
WISE                    
1 36119U 09071A   22234.66998598  .00003877  00000+0  11901-3 0  9999
2 36119  97.2363 267.7884 0003980  82.3392 277.8303 15.34317221705653
TDRS 11                 
1 39070U 13004A   22235.48514213  .00000081  00000+0  00000+0 0  9996
2 39070   2.8732 347.9479 0005779  80.9041 263.3915  1.00279176 35017
TDRS 12                 
1 39504U 14004A   22235.31346289 -.00000268  00000+0  00000+0 0  9995
2 39504   3.8049 348.4454 0004249 143.8153 271.2860  1.00274980 31475
GPM-CORE                
1 39574U 14009C   22234.83796192  .00009169  00000+0  13404-3 0  9999
2 39574  65.0026 322.3381 0010291 282.6775  77.3221 15.56145611481933
MMS 1                   
1 40482U 15011A   22234.34810098 -.00002581  00000+0  00000+0 0  9997
2 40482  31.2486 100.1540 8756111  58.1585 357.8474  0.28399914 13485
MMS 2                   
1 40483U 15011B   22234.85755894 -.00002556  00000+0  00000+0 0  9998
2 40483  31.2354 100.1184 8757684  58.2016  49.9243  0.28408771 13463
MMS 3                   
1 40484U 15011C   22234.86033671 -.00002556  00000+0  00000+0 0  9992
2 40484  31.2401 100.1392 8756606  58.1782  50.2118  0.28402060 13461
MMS 4                   
1 40485U 15011D   22234.88117005 -.00002554  00000+0  00000+0 0  9997
2 40485  31.2337 100.1208 8756946  58.2071  52.3188  0.28409100 13445
TDRS 13                 
1 42915U 17047A   22235.08104948 -.00000098  00000+0  00000+0 0  9994
2 42915   4.3851 334.0773 0018010 123.3537 251.6277  1.00272710 18408
JPSS-1                  
1 43013U 17073A   22235.46530037 -.00000008  00000+0  17105-4 0  9997
2 43013  98.7177 172.9784 0000770 109.9089 250.2170 14.19539458246738
